AMAZONAS 5              
1 42934U 17053A   26116.48193311 -.00000295  00000+0  00000+0 0  9999
2 42934   0.0379 311.1316 0004227  48.5512 327.3061  1.00271381 31525
ASIASAT 9               
1 42942U 17057A   26114.73562721 -.00000374  00000+0  00000+0 0  9991
2 42942   0.0111 267.8032 0001875 130.5278 201.3674  1.00270027 31322
INTELSAT 37E (IS-37E)   
1 42950U 17059A   26116.41917837 -.00000153  00000+0  00000+0 0  9996
2 42950   0.0177 247.0728 0002164 175.3145 284.9353  1.00273233 31544
BSAT-4A                 
1 42951U 17059B   26116.51573325 -.00000362  00000+0  00000+0 0  9990
2 42951   0.0730  56.1622 0004555 350.3790 103.4617  1.00269394 31281
QZS-4 (MICHIBIKI-4)     
1 42965U 17062A   26112.66690654 -.00000326  00000+0  00000+0 0  9996
2 42965  40.1416 344.1915 0746625 270.8161 335.9811  1.00266456 31246
SES-11 (ECHOSTAR 105)   
1 42967U 17063A   26116.47317975  .00000000  00000+0  00000+0 0  9992
2 42967   0.0192  66.3490 0002915 356.4652 217.0532  1.00269637 31208
KOREASAT 5A             
1 42984U 17067A   26116.51642660 -.00000370  00000+0  00000+0 0  9993
2 42984   0.0132 278.3662 0000979 111.6279 123.5891  1.00272729 31015
ALCOMSAT 1              
1 43039U 17078A   26116.41779169 -.00000198  00000+0  00000+0 0  9999
2 43039   0.0209 181.3985 0002507 192.6942 325.9241  1.00272552 30771
SBIRS GEO-3 (USA 282)   
1 43162U 18009A   26116.45947450  .00000117  00000+0  00000+0 0  9995
2 43162   2.1520   9.6392 0002237  17.1672 193.6599  1.00272089 30324
AL YAH 3                
1 43174U 18012A   26116.41874502 -.00000166  00000+0  00000+0 0  9990
2 43174   1.4198  83.6801 0004283 314.6586 306.7352  1.00272245 30327
SES-14                  
1 43175U 18012B   26116.41328500 -.00000291  00000+0  00000+0 0  9992
2 43175   0.0426  52.9388 0000879 336.9700 285.8004  1.00272597  6502
GOES 17                 
1 43226U 18022A   26116.47629977 -.00000194  00000+0  00000+0 0  9990
2 43226   0.8069  86.4035 0000656 273.4258 296.6261  1.00272021 29903
HISPASAT 30W-6          
1 43228U 18023A   26116.41675169  .00000000  00000+0  00000+0 0  9996
2 43228   0.0229  25.4811 0006282  14.5899 294.3810  1.00268387 29888
SUPERBIRD-B3            
1 43271U 18033A   26116.50044985 -.00000105  00000+0  00000+0 0  9998
2 43271   0.0139 267.2996 0001018 145.9637 143.3990  1.00271394 29544
HYLAS 4                 
1 43272U 18033B   26116.48713315  .00000000  00000+0  00000+0 0  9999
2 43272   0.0189 117.3191 0001780 286.5923 312.4836  1.00268486 29544
IRNSS-1I                
1 43286U 18035A   26113.96433882  .00000084  00000+0  00000+0 0  9996
2 43286  29.0520  75.0297 0018329 186.8735 352.2911  1.00274138 29532
USA 283                 
1 43339U 18036A   26113.45460377  .00000000  00000+0  00000+0 0  9997
2 43339   0.0106 233.1643 0000240  28.0848 248.0034  1.00268619 24740
